#aV2014  6 16  0  0  0.00000000     288 DD+AD WGS84 FIT  NGA
## 1797  86400.00000000   300.00000000 56824 0.0000000000000
+   32     1  2  3  4  5  6  7  8  9 10 11 12 13 14 15 16 17
+         18 19 20 21 22 23 24 25 26 27 28 29 30 31 32  0  0
+          0  0  0  0  0  0  0  0  0  0  0  0  0  0  0  0  0
+          0  0  0  0  0  0  0  0  0  0  0  0  0  0  0  0  0
+          0  0  0  0  0  0  0  0  0  0  0  0  0  0  0  0  0
++         2  2  2  2  2  2  2  2  2  2  2  2  2  2  2  2  2
++         2  2  2  2  2  2  2  2  2  2  2  2  2  2  2  0  0
++         0  0  0  0  0  0  0  0  0  0  0  0  0  0  0  0  0
++         0  0  0  0  0  0  0  0  0  0  0  0  0  0  0  0  0
++         0  0  0  0  0  0  0  0  0  0  0  0  0  0  0  0  0
%c cc cc ccc ccc cccc cccc cccc cccc ccccc ccccc ccccc ccccc
%c cc cc ccc ccc cccc cccc cccc cccc ccccc ccccc ccccc ccccc
%f  0.0000000  0.000000000  0.00000000000  0.000000000000000
%f  0.0000000  0.000000000  0.00000000000  0.000000000000000
%i    0    0    0    0      0      0      0      0         0
%i    0    0    0    0      0      0      0      0         0
/*      NGA, ST. LOUIS,MO.                                  
/*   EPHEMERIS COMPUTED FROM  1 DAYS OF DATA                
/*   EPOCHA SMOOTHER                                       
/* CCCCCCCCCCCCCCCCCCCCCCCCCCCCCCCCCCCCCCCCCCCCCCCCCCCCCCCCC
*  2014  6 16 23 15  0.00000000
P  1  15658.752156   -612.418920  21430.023937     15.449632                    
V  1   8629.052977  25868.029731  -5416.321374      0.010148                    
P  2 -14043.944451 -21523.220906  -7343.056067    501.518468                    
V  2   -709.875435 -10036.536381  29089.427199      0.021778                    
P  3  24358.980610   7065.062273  -8690.465420    378.850951                    
V  3 -10354.805605   2685.046940 -28536.125228      0.048235                    
P  4  -5227.788294 -25291.609339   5189.546687      7.275226                    
V  4   5910.957855   5341.102532  30482.814109      0.001681                    
P  5 -11828.566117 -10067.606727 -21578.028995   -365.210558                    
V  5  17712.748172 -20867.235026    190.127017      0.028323                    
P  6  -7018.572576 -25455.080657   2909.433734      6.674874                    
V  6   3882.896496   2536.737824  31461.302554     -0.023146                    
P  7   9064.770682 -15173.909476 -19639.982447    358.428826                    
V  7   9087.609583  23508.143423 -14249.798160      0.042185                    
P  8   4964.507261 -21194.117381 -14604.742373     14.205839                    
V  8   5803.568076  18187.844724 -24754.163024      0.003325                    
P  9   -361.560910 -24085.279061 -11481.747725     16.859308                    
V  9   6345.402963  12407.231359 -27707.712613      0.593245                    
P 10   3040.747205 -21096.014716 -15919.430429   -130.001612                    
V 10  14910.199809 -13297.828867  21342.012635     -0.014734                    
P 11  20436.681549   5645.988806  15619.497525   -497.882792                    
V 11  10316.816747  18464.663348 -19356.621669     -0.030956                    
P 12 -20180.966892   6545.106367  15762.553384    212.017417                    
V 12  12552.202812 -15882.554408  22773.580822      0.024985                    
P 13  19466.968459  -6295.027080 -17157.375682    -11.196442                    
V 13  20179.125030   7333.003892  20193.698857     -0.038769                    
P 14  -1303.953999  15210.332001  21967.522175    162.958836                    
V 14 -26469.211494  -6759.780643   2992.007281     -0.035012                    
P 15 -26449.670326  -3804.410034     17.077403   -185.704438                    
V 15    387.960501  -3299.578294 -31024.777552     -0.021863                    
P 16  10836.378781   9846.648416 -22214.768029   -212.738094                    
V 16 -19454.049275  20133.892486   -216.706565      0.020728                    
P 17    472.317016 -15344.797433  21949.030105   -101.850269                    
V 17  26562.109319   5890.709977   3367.759375     -0.029166                    
P 18 -16138.372381  20849.431874   1268.932223    325.887337                    
V 18  -3935.751288  -1848.385877 -31109.348688      0.024148                    
P 19  25400.009257   8424.178019  -1758.108604   -463.091614                    
V 19  -2560.018104   1610.318741 -31478.395613     -0.021216                    
P 20  20304.196450 -10214.661005  13505.366631    200.758445                    
V 20  -8035.659396  15929.167617  23867.379418      0.040476                    
P 21  -6309.588291  18884.592588 -16719.432703   -367.406883                    
V 21 -10331.078967 -20429.211603 -18922.859414     -0.021731                    
P 22  -6545.826033  22540.986685  12488.422224    242.763802                    
V 22 -12589.364651   9907.168700 -25076.294907      0.029430                    
P 23  25690.394040   -450.220561  -7443.143026    -29.273875                    
V 23   8839.533397   4338.269386  29379.296940     -0.030496                    
P 24 -16737.078984  -4232.035224  20187.162848    -30.285031                    
V 24  -7918.263675 -24441.535293 -11582.417438     -0.007069                    
P 25 -19477.475841  16968.812496   5781.548887     24.849532                    
V 25   3006.162415  -7222.683030  31048.677448      0.001442                    
P 26 -20874.703374 -13406.193861 -10529.012574     44.375970                    
V 26  12287.525061   1743.594003 -28086.613530     -0.122612                    
P 27  19800.864525  12477.471144 -12625.223381     -9.536748                    
V 27 -16120.542601   -700.150050 -25930.467982      0.029966                    
P 28  11228.149067 -21768.391638  10703.038499    362.816319                    
V 28  10059.413599  -7945.465541 -28445.557181      0.028437                    
P 29 -19604.710238   6937.109683 -16459.416660    540.206829                    
V 29 -20001.627192  -6504.792140  21082.019936      0.026682                    
P 30   3096.580220 -23029.712372 -12841.681120    -28.018262                    
V 30   6534.343443  15126.643284 -25604.635241     -0.068334                    
P 31   7053.699099  25386.294516   1627.062337    333.984504                    
V 31  -2979.589682  -1030.498144  32255.215299     -0.001298                    
P 32  16725.711455   3851.993752  20184.084106   -405.368933                    
V 32 -17268.369620  19089.757172  11232.207856      0.082957                    
EOF
